{
    "links": {
        "self": "http://www.neowsapp.com/rest/v1/neo/3330161?api_key=iIulBulltgU6a56xZRHN4H3l9WmuAYTsLGpBGhQ2"
    },
    "id": "3330161",
    "neo_reference_id": "3330161",
    "name": "(2006 HF6)",
    "designation": "2006 HF6",
    "nasa_jpl_url": "http://ssd.jpl.nasa.gov/sbdb.cgi?sstr=3330161",
    "absolute_magnitude_h": 24.4,
    "estimated_diameter": {
        "kilometers": {
            "estimated_diameter_min": 0.0350392641,
            "estimated_diameter_max": 0.0783501764
        },
        "meters": {
            "estimated_diameter_min": 35.0392641108,
            "estimated_diameter_max": 78.3501764334
        },
        "miles": {
            "estimated_diameter_min": 0.0217723826,
            "estimated_diameter_max": 0.0486845275
        },
        "feet": {
            "estimated_diameter_min": 114.9582192654,
            "estimated_diameter_max": 257.0543928497
        }
    },
    "is_potentially_hazardous_asteroid": false,
    "close_approach_data": [
        {
            "close_approach_date": "1969-05-01",
            "close_approach_date_full": "1969-May-01 17:20",
            "epoch_date_close_approach": -21105600000,
            "relative_velocity": {
                "kilometers_per_second": "24.0866513646",
                "kilometers_per_hour": "86711.9449125834",
                "miles_per_hour": "53879.4304374883"
            },
            "miss_distance": {
                "astronomical": "0.2631731589",
                "lunar": "102.3743588121",
                "kilometers": "39370144.012611543",
                "miles": "24463473.1031155734"
            },
            "orbiting_body": "Earth"
        },
        {
            "close_approach_date": "1970-09-26",
            "close_approach_date_full": "1970-Sep-26 23:53",
            "epoch_date_close_approach": 23241180000,
            "relative_velocity": {
                "kilometers_per_second": "29.1271840977",
                "kilometers_per_hour": "104857.862751563",
                "miles_per_hour": "65154.5981080476"
            },
            "miss_distance": {
                "astronomical": "0.4292723474",
                "lunar": "166.9869431386",
                "kilometers": "64218228.820940038",
                "miles": "39903357.0460790044"
            },
            "orbiting_body": "Earth"
        },
        {
            "close_approach_date": "2006-04-18",
            "close_approach_date_full": "2006-Apr-18 08:29",
            "epoch_date_close_approach": 1145348940000,
            "relative_velocity": {
                "kilometers_per_second": "16.289820644",
                "kilometers_per_hour": "58643.3543185073",
                "miles_per_hour": "36438.6997986303"
            },
            "miss_distance": {
                "astronomical": "0.0048873062",
                "lunar": "1.9011621118",
                "kilometers": "731130.597557794",
                "miles": "454303.4869897972"
            },
            "orbiting_body": "Earth"
        },
        {
            "close_approach_date": "2006-04-18",
            "close_approach_date_full": "2006-Apr-18 12:03",
            "epoch_date_close_approach": 1145361780000,
            "relative_velocity": {
                "kilometers_per_second": "17.1691545428",
                "kilometers_per_hour": "61808.9563539828",
                "miles_per_hour": "38405.6817967289"
            },
            "miss_distance": {
                "astronomical": "0.0032487053",
                "lunar": "1.2637463617",
                "kilometers": "485999.393137711",
                "miles": "301986.0196179718"
            },
            "orbiting_body": "Moon"
        },
        {
            "close_approach_date": "2011-04-19",
            "close_approach_date_full": "2011-Apr-19 09:03",
            "epoch_date_close_approach": 1303203780000,
            "relative_velocity": {
                "kilometers_per_second": "16.6532132112",
                "kilometers_per_hour": "59951.567560365",
                "miles_per_hour": "37251.5726321612"
            },
            "miss_distance": {
                "astronomical": "0.0092108627",
                "lunar": "3.5830255903",
                "kilometers": "1377925.440782449",
                "miles": "856203.1662338362"
            },
            "orbiting_body": "Earth"
        }
    ],
    "orbital_data": {
        "orbit_id": "13",
        "orbit_determination_date": "2017-04-06 09:08:46",
        "first_observation_date": "2006-04-21",
        "last_observation_date": "2006-05-07",
        "data_arc_in_days": 16,
        "observations_used": 41,
        "orbit_uncertainty": "8",
        "minimum_orbit_intersection": ".00265351",
        "jupiter_tisserand_invariant": "4.563",
        "epoch_osculation": "2453854.5",
        "eccentricity": ".5495860759463491",
        "semi_major_axis": "1.406196321814477",
        "inclination": "6.585393879296658",
        "ascending_node_longitude": "29.61135573586179",
        "orbital_period": "609.0702168528588",
        "perihelion_distance": ".6333704032982692",
        "perihelion_argument": "86.28455900301388",
        "aphelion_distance": "2.179022240330685",
        "perihelion_time": "2453790.057153335896",
        "mean_anomaly": "38.0899018818417",
        "mean_motion": ".5910648559704077",
        "equinox": "J2000",
        "orbit_class": {
            "orbit_class_type": "APO",
            "orbit_class_description": "Near-Earth asteroid orbits which cross the Earth’s orbit similar to that of 1862 Apollo",
            "orbit_class_range": "a (semi-major axis) > 1.0 AU; q (perihelion) < 1.017 AU"
        }
    },
    "is_sentry_object": false
}